NORAD_CAT_ID,OBJECT_NAME,OBJECT_TYPE,EPOCH,MEAN_MOTION,ECCENTRICITY,INCLINATION,RA_OF_ASC_NODE,ARG_OF_PERICENTER,MEAN_ANOMALY,BSTAR,MEAN_MOTION_DOT,MEAN_MOTION_DDOT,TLE_LINE0,TLE_LINE1,TLE_LINE2,SEMIMAJOR_AXIS,PERIOD,APOGEE,PERIGEE,DECAYED
54086.0,STARLINK-5211,PAYLOAD,2023-12-19 04:27:07,15.08834536,0.0001339,53.2187,2.2056,70.697,289.4167,-0.00010227,-1.915e-05,0.0,0 STARLINK-5211,1 54086U 22136AM  23353.18550455 -.00001915  00000-0 -10227-3 0  9999,2 54086  53.2187   2.2056 0001339  70.6970 289.4167 15.08834536 65158,6917.897,95.438,540.688,538.836,0.0
54086.0,STARLINK-5211,PAYLOAD,2023-12-19 07:37:53,15.08836172,0.0001309,53.2177,1.6085,81.8805,278.2336,-6.9716e-05,-1.397e-05,0.0,0 STARLINK-5211,1 54086U 22136AM  23353.31798321 -.00001397  00000-0 -69716-4 0  9992,2 54086  53.2177   1.6085 0001309  81.8805 278.2336 15.08836172 64702,6917.892,95.438,540.663,538.852,0.0
54086.0,STARLINK-5211,PAYLOAD,2023-12-20 05:53:17,15.08837376,0.0001275,53.2172,357.4472,80.8769,279.2367,-9.2091e-05,-1.753e-05,0.0,0 STARLINK-5211,1 54086U 22136AM  23354.24534611 -.00001753  00000-0 -92091-4 0  9993,2 54086  53.2172 357.4472 0001275  80.8769 279.2367 15.08837376 65319,6917.888,95.438,540.635,538.871,0.0
54086.0,STARLINK-5211,PAYLOAD,2023-12-21 05:44:04,15.08847091,0.0001271,53.2171,352.986,74.1098,286.0034,0.00029849,4.467e-05,0.0,0 STARLINK-5211,1 54086U 22136AM  23355.23894319  .00004467  00000-0  29849-3 0  9990,2 54086  53.2171 352.9860 0001271  74.1098 286.0034 15.08847091 65464,6917.859,95.437,540.603,538.844,0.0
54086.0,STARLINK-5211,PAYLOAD,2023-12-22 03:59:28,15.08840984,0.0001393,53.2169,348.8193,67.8727,292.2413,0.00011288,1.509e-05,0.0,0 STARLINK-5211,1 54086U 22136AM  23356.16630779  .00001509  00000-0  11288-3 0  9993,2 54086  53.2169 348.8193 0001393  67.8727 292.2413 15.08840984 65607,6917.877,95.437,540.706,538.779,0.0
54086.0,STARLINK-5211,PAYLOAD,2023-12-22 07:10:15,15.08845087,0.0001519,53.2173,348.2305,83.1627,276.9538,0.00015608,2.197e-05,0.0,0 STARLINK-5211,1 54086U 22136AM  23356.29878606  .00002197  00000-0  15608-3 0  9994,2 54086  53.2173 348.2305 0001519  83.1627 276.9538 15.08845087 65157,6917.865,95.437,540.781,538.679,0.0
54086.0,STARLINK-5211,PAYLOAD,2023-12-23 03:50:16,15.0882991,0.00016,53.2176,344.3648,93.5928,266.5247,-0.00011474,-2.113e-05,0.0,0 STARLINK-5211,1 54086U 22136AM  23357.15991313 -.00002113  00000-0 -11474-3 0  9998,2 54086  53.2176 344.3648 0001600  93.5928 266.5247 15.08829910 65752,6917.911,95.438,540.883,538.669,0.0
54086.0,STARLINK-5211,PAYLOAD,2023-12-23 08:36:25,15.08834149,0.0001652,53.2173,343.4682,91.7388,268.3793,2.337e-05,8.4e-07,0.0,0 STARLINK-5211,1 54086U 22136AM  23357.35863298  .00000084  00000-0  23370-4 0  9992,2 54086  53.2173 343.4682 0001652  91.7388 268.3793 15.08834149 65312,6917.898,95.438,540.906,538.62,0.0
54086.0,STARLINK-5211,PAYLOAD,2023-12-24 03:41:03,15.08850944,0.0001813,53.2179,339.9006,94.924,265.1959,0.00044208,6.757e-05,0.0,0 STARLINK-5211,1 54086U 22136AM  23358.15351286  .00006757  00000-0  44208-3 0  9995,2 54086  53.2179 339.9006 0001813  94.9240 265.1959 15.08850944 65904,6917.847,95.437,540.966,538.458,0.0
54086.0,STARLINK-5211,PAYLOAD,2023-12-24 08:27:12,15.08858478,0.0001812,53.2169,339.0063,95.7646,264.3553,0.00084184,0.00013142,0.0,0 STARLINK-5211,1 54086U 22136AM  23358.35223304  .00013142  00000-0  84184-3 0  9999,2 54086  53.2169 339.0063 0001812  95.7646 264.3553 15.08858478 65467,6917.824,95.436,540.942,538.435,0.0
54086.0,STARLINK-5211,PAYLOAD,2023-12-25 03:31:50,15.0885554,0.0002308,53.2182,335.4332,116.6563,243.4666,0.00043162,6.591e-05,0.0,0 STARLINK-5211,1 54086U 22136AM  23359.14710782  .00006591  00000-0  43162-3 0  9999,2 54086  53.2182 335.4332 0002308 116.6563 243.4666 15.08855540 66059,6917.833,95.437,541.295,538.101,0.0
54086.0,STARLINK-5211,PAYLOAD,2023-12-25 08:17:59,15.08862441,0.0001794,53.2175,334.5466,97.0982,263.0214,0.00071282,0.00011082,0.0,0 STARLINK-5211,1 54086U 22136AM  23359.34582756  .00011082  00000-0  71282-3 0  9994,2 54086  53.2175 334.5466 0001794  97.0982 263.0214 15.08862441 65610,6917.812,95.436,540.918,538.436,0.0
54086.0,STARLINK-5211,PAYLOAD,2023-12-25 19:25:41,15.08850904,0.000219,53.2191,332.456,130.8109,229.3073,0.00039779,6.05e-05,0.0,0 STARLINK-5211,1 54086U 22136AM  23359.80950539  .00006050  00000-0  39779-3 0  9997,2 54086  53.2191 332.4560 0002190 130.8109 229.3073 15.08850904 66157,6917.847,95.437,541.227,538.197,0.0
54086.0,STARLINK-5211,PAYLOAD,2023-12-25 22:36:27,15.0883638,0.0001706,53.2186,331.8631,107.9716,252.1462,0.00034663,5.232e-05,0.0,0 STARLINK-5211,1 54086U 22136AM  23359.94198915  .00005232  00000-0  34663-3 0  9992,2 54086  53.2186 331.8631 0001706 107.9716 252.1462 15.08836380 65702,6917.891,95.438,540.937,538.576,0.0
54086.0,STARLINK-5211,PAYLOAD,2023-12-26 03:22:37,15.08842218,0.0001948,53.2174,330.975,108.3662,251.7542,-5.5605e-05,-1.173e-05,0.0,0 STARLINK-5211,1 54086U 22136AM  23360.14070864 -.00001173  00000-0 -55605-4 0  9990,2 54086  53.2174 330.9750 0001948 108.3662 251.7542 15.08842218 66201,6917.874,95.437,541.086,538.391,0.0
54086.0,STARLINK-5211,PAYLOAD,2023-12-26 04:58:00,15.08843024,0.0001806,53.2177,330.6819,87.4098,272.7101,-4.5043e-05,-1.005e-05,0.0,0 STARLINK-5211,1 54086U 22136AM  23360.20694976 -.00001005  00000-0 -45043-4 0  9992,2 54086  53.2177 330.6819 0001806  87.4098 272.7101 15.08843024 65748,6917.871,95.437,540.986,538.487,0.0
54086.0,STARLINK-5211,PAYLOAD,2023-12-26 22:27:15,15.08844102,0.000183,53.2186,327.4184,102.149,257.9707,-2.2203e-05,-6.42e-06,0.0,0 STARLINK-5211,1 54086U 22136AM  23360.93559144 -.00000642  00000-0 -22203-4 0  9998,2 54086  53.2186 327.4184 0001830 102.1490 257.9707 15.08844102 65852,6917.868,95.437,540.999,538.467,0.0
54086.0,STARLINK-5211,PAYLOAD,2023-12-27 07:59:33,15.08851556,0.0001864,53.2183,325.6308,101.2912,258.8289,0.00024886,3.676e-05,0.0,0 STARLINK-5211,1 54086U 22136AM  23361.33302761  .00003676  00000-0  24886-3 0  9990,2 54086  53.2183 325.6308 0001864 101.2912 258.8289 15.08851556 66388,6917.845,95.437,541.0,538.421,0.0
54086.0,STARLINK-5211,PAYLOAD,2023-12-27 22:18:02,15.08836738,0.0001741,53.2175,322.9492,100.5114,259.6075,7.6089e-05,9.23e-06,0.0,0 STARLINK-5211,1 54086U 22136AM  23361.92919403  .00000923  00000-0  76089-4 0  9997,2 54086  53.2175 322.9492 0001741 100.5114 259.6075 15.08836738 66009,6917.89,95.438,540.96,538.551,0.0
54086.0,STARLINK-5211,PAYLOAD,2023-12-28 03:04:11,15.08838049,0.0001864,53.2182,322.0562,111.3686,248.7505,7.3359e-05,8.8e-06,0.0,0 STARLINK-5211,1 54086U 22136AM  23362.12791394  .00000880  00000-0  73359-4 0  9996,2 54086  53.2182 322.0562 0001864 111.3686 248.7505 15.08838049 66505,6917.886,95.438,541.041,538.462,0.0
54086.0,STARLINK-5211,PAYLOAD,2023-12-28 07:50:21,15.08835087,0.00016,53.2174,321.1672,95.7204,264.397,5.2175e-05,5.42e-06,0.0,0 STARLINK-5211,1 54086U 22136AM  23362.32663680  .00000542  00000-0  52175-4 0  9992,2 54086  53.2174 321.1672 0001600  95.7204 264.3970 15.08835087 66067,6917.895,95.438,540.867,538.654,0.0
54086.0,STARLINK-5211,PAYLOAD,2023-12-29 06:05:45,15.08843536,0.0001649,53.2185,317.0057,95.9189,264.1991,9.3286e-05,1.197e-05,0.0,0 STARLINK-5211,1 54086U 22136AM  23363.25399522  .00001197  00000-0  93286-4 0  9991,2 54086  53.2185 317.0057 0001649  95.9189 264.1991 15.08843536 66673,6917.87,95.437,540.875,538.594,0.0
54086.0,STARLINK-5211,PAYLOAD,2023-12-30 04:21:09,15.08845894,0.0001695,53.2192,312.8458,87.8396,272.279,0.00021601,3.152e-05,0.0,0 STARLINK-5211,1 54086U 22136AM  23364.18135648  .00003152  00000-0  21601-3 0  9995,2 54086  53.2192 312.8458 0001695  87.8396 272.2790 15.08845894 66340,6917.862,95.437,540.9,538.555,0.0
54086.0,STARLINK-5211,PAYLOAD,2023-12-30 20:14:59,15.08858081,0.0001603,53.2186,309.8703,98.9614,261.156,0.00033836,5.104e-05,0.0,0 STARLINK-5211,1 54086U 22136AM  23364.84374621  .00005104  00000-0  33836-3 0  9996,2 54086  53.2186 309.8703 0001603  98.9614 261.1560 15.08858081 66914,6917.825,95.436,540.799,538.581,0.0
54086.0,STARLINK-5211,PAYLOAD,2023-12-31 04:11:56,15.08833885,0.0001601,53.2189,308.3912,73.2216,286.8952,-9.1356e-05,-1.741e-05,0.0,0 STARLINK-5211,1 54086U 22136AM  23365.17495679 -.00001741  00000-0 -91356-4 0  9997,2 54086  53.2189 308.3912 0001601  73.2216 286.8952 15.08833885 66964,6917.899,95.438,540.872,538.657,0.0
54086.0,STARLINK-5211,PAYLOAD,2023-12-31 20:05:47,15.08839338,0.0001509,53.2181,305.4156,132.8475,227.2644,-0.00017516,-3.075e-05,0.0,0 STARLINK-5211,1 54086U 22136AM  23365.83735385 -.00003075  00000-0 -17516-3 0  9998,2 54086  53.2181 305.4156 0001509 132.8475 227.2644 15.08839338 66595,6917.882,95.438,540.791,538.704,0.0
54086.0,STARLINK-5211,PAYLOAD,2024-01-01 02:27:19,15.0884197,0.0001485,53.2175,304.2271,72.3349,287.7805,-3.2837e-05,-8.11e-06,0.0,0 STARLINK-5211,1 54086U 22136AM  24001.10231473 -.00000811  00000-0 -32837-4 0  9994,2 54086  53.2175 304.2271 0001485  72.3349 287.7805 15.08841970 67107,6917.874,95.437,540.767,538.712,0.0
54086.0,STARLINK-5211,PAYLOAD,2024-01-01 19:56:34,15.08843948,0.0001496,53.2174,300.9547,70.4006,289.7148,0.00017509,2.5e-05,0.0,0 STARLINK-5211,1 54086U 22136AM  24001.83095549  .00002500  00000-0  17509-3 0  9999,2 54086  53.2174 300.9547 0001496  70.4006 289.7148 15.08843948 66744,6917.868,95.437,540.768,538.698,0.0
54086.0,STARLINK-5211,PAYLOAD,2024-01-02 02:18:07,15.08849559,0.0001484,53.2167,299.7648,75.5852,284.5305,0.00030489,4.569e-05,0.0,0 STARLINK-5211,1 54086U 22136AM  24002.09591446  .00004569  00000-0  30489-3 0  9994,2 54086  53.2167 299.7648 0001484  75.5852 284.5305 15.08849559 66781,6917.851,95.437,540.743,538.69,0.0
54086.0,STARLINK-5211,PAYLOAD,2024-01-03 02:08:53,15.08845256,0.0001627,53.2176,295.3037,104.0321,256.0852,0.00015308,2.149e-05,0.0,0 STARLINK-5211,1 54086U 22136AM  24003.08951355  .00002149  00000-0  15308-3 0  9998,2 54086  53.2176 295.3037 0001627 104.0321 256.0852 15.08845256 67404,6917.864,95.437,540.855,538.604,0.0
